GLOBALSTAR M001 [-]     
1 25162U 98008A   23249.43031632 -.00000090  00000+0  51868-4 0  9994
2 25162  52.0036  64.3155 0001440   0.3752  12.7853 12.38166577163220
GLOBALSTAR M004 [-]     
1 25163U 98008B   23249.29179898 -.00000078  00000+0  14395-3 0  9995
2 25163  51.9967 236.7387 0002881 290.0673  83.1854 12.63337204179544
GLOBALSTAR M002 [-]     
1 25164U 98008C   23249.51424150 -.00000087  00000+0 -20223-3 0  9993
2 25164  52.0019  69.1270 0002024  51.2824 308.8176 11.61495010108574
GLOBALSTAR M003 [-]     
1 25165U 98008D   23249.08777821  .00000050  00000+0  14926-2 0  9992
2 25165  51.9721 169.1849 0008280  64.9721 306.9005 12.11934552154399
GLOBALSTAR M014 [-]     
1 25306U 98023A   23249.27328590 -.00000075  00000+0  38901-4 0  9991
2 25306  51.9872   6.6164 0000526 193.9730 179.9432 11.65459067115396
GLOBALSTAR M006 [-]     
1 25307U 98023B   23249.40922834 -.00000065  00000+0  21071-3 0  9996
2 25307  51.9961  34.4595 0003829  32.0278 356.4808 11.58153392141541
GLOBALSTAR M015 [-]     
1 25308U 98023C   23248.96204712 -.00000077  00000+0 -69636-4 0  9999
2 25308  51.9811 104.2575 0012824   4.1498 139.3041 11.48849141119342
